NORAD_CAT_ID,OBJECT_NAME,OBJECT_TYPE,EPOCH,MEAN_MOTION,ECCENTRICITY,INCLINATION,RA_OF_ASC_NODE,ARG_OF_PERICENTER,MEAN_ANOMALY,BSTAR,MEAN_MOTION_DOT,MEAN_MOTION_DDOT,TLE_LINE0,TLE_LINE1,TLE_LINE2,SEMIMAJOR_AXIS,PERIOD,APOGEE,PERIGEE,DECAYED
52541.0,STARLINK-3845,PAYLOAD,2023-11-01 12:27:09,15.08851903,0.0001498,53.2175,31.0878,93.7092,266.4071,0.00053855,8.296e-05,0.0,0 STARLINK-3845,1 52541U 22051J   23305.51885655  .00008296  00000-0  53855-3 0  9997,2 52541  53.2175  31.0878 0001498  93.7092 266.4071 15.08851903 81668,6917.844,95.437,540.745,538.673,0.0
52541.0,STARLINK-3845,PAYLOAD,2023-11-02 12:17:56,15.08847924,0.0001484,53.2181,26.6255,94.1506,265.9655,0.00023766,3.497e-05,0.0,0 STARLINK-3845,1 52541U 22051J   23306.51245566  .00003497  00000-0  23766-3 0  9995,2 52541  53.2181  26.6255 0001484  94.1506 265.9655 15.08847924 81888,6917.856,95.437,540.748,538.695,0.0
52541.0,STARLINK-3845,PAYLOAD,2023-11-03 04:11:47,15.0884057,0.0001571,53.2179,23.6536,91.4378,268.6794,7.9154e-05,9.72e-06,0.0,0 STARLINK-3845,1 52541U 22051J   23307.17485763  .00000972  00000-0  79154-4 0  9991,2 52541  53.2179  23.6536 0001571  91.4378 268.6794 15.08840570 81983,6917.879,95.438,540.83,538.657,0.0
52541.0,STARLINK-3845,PAYLOAD,2023-11-03 12:08:43,15.08844897,0.0001464,53.2178,22.1677,82.6116,277.5042,0.00015591,2.195e-05,0.0,0 STARLINK-3845,1 52541U 22051J   23307.50605746  .00002195  00000-0  15591-3 0  9996,2 52541  53.2178  22.1677 0001464  82.6116 277.5042 15.08844897 81964,6917.865,95.437,540.743,538.718,0.0
52541.0,STARLINK-3845,PAYLOAD,2023-11-04 10:24:07,15.08840279,0.0001445,53.2174,18.0045,82.0397,278.076,0.00011592,1.557e-05,0.0,0 STARLINK-3845,1 52541U 22051J   23308.43342054  .00001557  00000-0  11592-3 0  9997,2 52541  53.2174  18.0045 0001445  82.0397 278.0760 15.08840279 82174,6917.88,95.438,540.744,538.745,0.0
52541.0,STARLINK-3845,PAYLOAD,2023-11-04 11:59:30,15.08843511,0.0001357,53.2169,17.7082,85.99,274.1247,0.00018109,2.596e-05,0.0,0 STARLINK-3845,1 52541U 22051J   23308.49965922  .00002596  00000-0  18109-3 0  9993,2 52541  53.2169  17.7082 0001357  85.9900 274.1247 15.08843511 82112,6917.87,95.437,540.673,538.796,0.0
52541.0,STARLINK-3845,PAYLOAD,2023-11-04 21:31:49,15.08842753,0.0001484,53.2181,15.9265,97.5207,262.5954,0.00015816,2.23e-05,0.0,0 STARLINK-3845,1 52541U 22051J   23308.89709989  .00002230  00000-0  15816-3 0  9993,2 52541  53.2181  15.9265 0001484  97.5207 262.5954 15.08842753 82178,6917.872,95.437,540.764,538.71,0.0
52541.0,STARLINK-3845,PAYLOAD,2023-11-05 11:50:17,15.08860109,0.0001517,53.2181,13.2475,87.4848,272.6318,0.00044433,6.794e-05,0.0,0 STARLINK-3845,1 52541U 22051J   23309.49325251  .00006794  00000-0  44433-3 0  9992,2 52541  53.2181  13.2475 0001517  87.4848 272.6318 15.08860109 82337,6917.819,95.436,540.733,538.634,0.0
52541.0,STARLINK-3845,PAYLOAD,2023-11-05 21:22:35,15.08862165,0.0001698,53.2187,11.4638,71.6744,288.4433,0.00046196,7.076e-05,0.0,0 STARLINK-3845,1 52541U 22051J   23309.89069155  .00007076  00000-0  46196-3 0  9996,2 52541  53.2187  11.4638 0001698  71.6744 288.4433 15.08862165 82320,6917.813,95.436,540.852,538.503,0.0
52541.0,STARLINK-3845,PAYLOAD,2023-11-06 11:41:03,15.08865886,0.000176,53.2183,8.7896,69.7448,290.3733,0.00051947,7.995e-05,0.0,0 STARLINK-3845,1 52541U 22051J   23310.48684719  .00007995  00000-0  51947-3 0  9992,2 52541  53.2183   8.7896 0001760  69.7448 290.3733 15.08865886 82485,6917.801,95.436,540.884,538.449,0.0
52541.0,STARLINK-3845,PAYLOAD,2023-11-07 03:34:57,15.08793015,0.0001717,53.2175,5.8146,94.9511,265.1677,-0.00078207,-0.00012697,0.0,0 STARLINK-3845,1 52541U 22051J   23311.14928096 -.00012697  00000-0 -78207-3 0  9990,2 52541  53.2175   5.8146 0001717  94.9511 265.1677 15.08793015 82587,6918.024,95.441,541.077,538.701,0.0
52541.0,STARLINK-3845,PAYLOAD,2023-11-07 09:56:29,15.08831197,0.0001439,53.218,4.6252,92.1455,267.9702,0.00062165,9.617e-05,0.0,0 STARLINK-3845,1 52541U 22051J   23311.41423464  .00009617  00000-0  62165-3 0  9991,2 52541  53.2180   4.6252 0001439  92.1455 267.9702 15.08831197 82624,6917.907,95.438,540.768,538.777,0.0
52541.0,STARLINK-3845,PAYLOAD,2023-11-08 03:25:45,15.08833944,0.0001557,53.2174,1.3549,84.5113,275.6057,0.00056207,8.667e-05,0.0,0 STARLINK-3845,1 52541U 22051J   23312.14288281  .00008667  00000-0  56207-3 0  9992,2 52541  53.2174   1.3549 0001557  84.5113 275.6057 15.08833944 82730,6917.899,95.438,540.841,538.687,0.0
52541.0,STARLINK-3845,PAYLOAD,2023-11-08 09:47:17,15.08839664,0.0001587,53.2175,0.1662,89.325,270.7924,0.0006923,0.00010747,0.0,0 STARLINK-3845,1 52541U 22051J   23312.40784304  .00010747  00000-0  69230-3 0  9990,2 52541  53.2175   0.1662 0001587  89.3250 270.7924 15.08839664 82703,6917.881,95.438,540.844,538.649,0.0
52541.0,STARLINK-3845,PAYLOAD,2023-11-08 20:54:59,15.08846575,0.000187,53.2186,358.0839,78.8542,281.266,0.00068328,0.00010605,0.0,0 STARLINK-3845,1 52541U 22051J   23312.87152122  .00010605  00000-0  68328-3 0  9998,2 52541  53.2186 358.0839 0001870  78.8542 281.2660 15.08846575 82778,6917.86,95.437,541.019,538.432,0.0
52541.0,STARLINK-3845,PAYLOAD,2023-11-09 09:38:03,15.08856427,0.0001597,53.2191,355.7116,98.7177,261.3996,0.0004579,7.01e-05,0.0,0 STARLINK-3845,1 52541U 22051J   23313.40142949  .00007010  00000-0  45790-3 0  9998,2 52541  53.2191 355.7116 0001597  98.7177 261.3996 15.08856427 82922,6917.83,95.437,540.8,538.59,0.0
52541.0,STARLINK-3845,PAYLOAD,2023-11-09 23:56:31,15.08849234,0.0001815,53.2193,353.0365,111.3705,248.7481,0.00014274,1.985e-05,0.0,0 STARLINK-3845,1 52541U 22051J   23313.99759052  .00001985  00000-0  14274-3 0  9999,2 52541  53.2193 353.0365 0001815 111.3705 248.7481 15.08849234 83010,6917.852,95.437,540.973,538.462,0.0
52541.0,STARLINK-3845,PAYLOAD,2023-11-10 12:39:36,15.08853903,0.000144,53.2172,350.647,97.0466,263.069,0.0001022,1.34e-05,0.0,0 STARLINK-3845,1 52541U 22051J   23314.52750662  .00001340  00000-0  10220-3 0  9999,2 52541  53.2172 350.6470 0001440  97.0466 263.0690 15.08853903 83026,6917.838,95.437,540.699,538.707,0.0
52541.0,STARLINK-3845,PAYLOAD,2023-11-10 19:01:09,15.08849062,0.000144,53.2181,349.4564,90.4199,269.6958,5.5656e-05,5.98e-06,0.0,0 STARLINK-3845,1 52541U 22051J   23314.79246709  .00000598  00000-0  55656-4 0  9997,2 52541  53.2181 349.4564 0001440  90.4199 269.6958 15.08849062 83060,6917.853,95.437,540.714,538.722,0.0
52541.0,STARLINK-3845,PAYLOAD,2023-11-11 02:58:05,15.08841107,0.0001972,53.2187,347.9721,85.4507,274.671,-4.9237e-05,-1.072e-05,0.0,0 STARLINK-3845,1 52541U 22051J   23315.12367203 -.00001072  00000-0 -49237-4 0  9996,2 52541  53.2187 347.9721 0001972  85.4507 274.6710 15.08841107 83188,6917.877,95.437,541.106,538.378,0.0
52541.0,STARLINK-3845,PAYLOAD,2023-11-11 09:19:37,15.08840607,0.0001679,53.2191,346.7839,94.7511,265.3673,-7.094e-05,-1.417e-05,0.0,0 STARLINK-3845,1 52541U 22051J   23315.38863199 -.00001417  00000-0 -70940-4 0  9997,2 52541  53.2191 346.7839 0001679  94.7511 265.3673 15.08840607 83158,6917.879,95.438,540.905,538.582,0.0
52541.0,STARLINK-3845,PAYLOAD,2023-11-11 18:51:56,15.08837977,0.0001679,53.2184,345.0,104.0667,256.0512,3.7145e-05,3.03e-06,0.0,0 STARLINK-3845,1 52541U 22051J   23315.78607381  .00000303  00000-0  37145-4 0  9991,2 52541  53.2184 345.0000 0001679 104.0667 256.0512 15.08837977 83211,6917.887,95.438,540.913,538.59,0.0
52541.0,STARLINK-3845,PAYLOAD,2023-11-12 10:45:47,15.08846741,0.0001525,53.2185,342.0264,90.8118,269.3049,0.00018603,2.674e-05,0.0,0 STARLINK-3845,1 52541U 22051J   23316.44847025  .00002674  00000-0  18603-3 0  9996,2 52541  53.2185 342.0264 0001525  90.8118 269.3049 15.08846741 83383,6917.86,95.437,540.78,538.67,0.0
52541.0,STARLINK-3845,PAYLOAD,2023-11-12 18:42:43,15.08844276,0.000154,53.2173,340.5385,87.2502,272.8667,8.2242e-05,1.021e-05,0.0,0 STARLINK-3845,1 52541U 22051J   23316.77967128  .00001021  00000-0  82242-4 0  9995,2 52541  53.2173 340.5385 0001540  87.2502 272.8667 15.08844276 83365,6917.867,95.437,540.798,538.667,0.0
52541.0,STARLINK-3845,PAYLOAD,2023-11-13 01:04:16,15.08839486,0.0001735,53.2175,339.3491,83.4456,276.6734,9.6962e-05,1.255e-05,0.0,0 STARLINK-3845,1 52541U 22051J   23317.04463412  .00001255  00000-0  96962-4 0  9996,2 52541  53.2175 339.3491 0001735  83.4456 276.6734 15.08839486 83479,6917.882,95.438,540.947,538.547,0.0
52541.0,STARLINK-3845,PAYLOAD,2023-11-13 10:36:35,15.08844072,0.0001733,53.2184,337.5644,83.9918,276.1272,0.00014902,2.085e-05,0.0,0 STARLINK-3845,1 52541U 22051J   23317.44207244  .00002085  00000-0  14902-3 0  9994,2 52541  53.2184 337.5644 0001733  83.9918 276.1272 15.08844072 83463,6917.868,95.437,540.932,538.534,0.0
52541.0,STARLINK-3845,PAYLOAD,2023-11-14 08:51:59,15.08841959,0.0001491,53.2189,333.3994,81.4397,278.6764,0.00010469,1.379e-05,0.0,0 STARLINK-3845,1 52541U 22051J   23318.36943299  .00001379  00000-0  10469-3 0  9992,2 52541  53.2189 333.3994 0001491  81.4397 278.6764 15.08841959 83672,6917.874,95.437,540.771,538.708,0.0
52541.0,STARLINK-3845,PAYLOAD,2023-11-14 18:24:17,15.08847098,0.0001413,53.2188,331.6151,83.9558,276.1595,-6.9623e-05,-1.396e-05,0.0,0 STARLINK-3845,1 52541U 22051J   23318.76687187 -.00001396  00000-0 -69623-4 0  9995,2 52541  53.2188 331.6151 0001413  83.9558 276.1595 15.08847098 83661,6917.859,95.437,540.701,538.746,0.0
52541.0,STARLINK-3845,PAYLOAD,2023-11-15 00:45:50,15.08835072,0.0001474,53.2184,330.4284,82.8466,277.2693,3.4999e-05,2.69e-06,0.0,0 STARLINK-3845,1 52541U 22051J   23319.03183882  .00000269  00000-0  34999-4 0  9993,2 52541  53.2184 330.4284 0001474  82.8466 277.2693 15.08835072 83776,6917.895,95.438,540.78,538.741,0.0
52541.0,STARLINK-3845,PAYLOAD,2023-11-15 07:07:23,15.08837472,0.0001496,53.2184,329.2384,79.4375,280.6786,1.4131e-05,-6.3e-07,0.0,0 STARLINK-3845,1 52541U 22051J   23319.29679841 -.00000063  00000-0  14131-4 0  9995,2 52541  53.2184 329.2384 0001496  79.4375 280.6786 15.08837472 83742,6917.888,95.438,540.788,538.718,0.0
